[{"OBJECT_NAME":"STARLINK-1727","OBJECT_ID":"2020-062L","EPOCH":"2026-03-10T00:00:02.999808","MEAN_MOTION":15.68774266,"ECCENTRICITY":0.0003989,"INCLINATION":53.0455,"RA_OF_ASC_NODE":334.6751,"ARG_OF_PERICENTER":315.6652,"MEAN_ANOMALY":309.6896,"EPHEMERIS_TYPE":0,"CLASSIFICATION_TYPE":"U","NORAD_CAT_ID":46335,"ELEMENT_SET_NO":999,"REV_AT_EPOCH":585,"BSTAR":0.0010099157,"MEAN_MOTION_DOT":0.00118879,"MEAN_MOTION_DDOT":0},{"OBJECT_NAME":"COSMOS 1408 DEB","OBJECT_ID":"1982-092SW","EPOCH":"2026-03-09T18:18:30.050784","MEAN_MOTION":15.71290453,"ECCENTRICITY":0.00149584,"INCLINATION":82.612,"RA_OF_ASC_NODE":337.7981,"ARG_OF_PERICENTER":124.2456,"MEAN_ANOMALY":236.0226,"EPHEMERIS_TYPE":0,"CLASSIFICATION_TYPE":"U","NORAD_CAT_ID":50058,"ELEMENT_SET_NO":999,"REV_AT_EPOCH":24167,"BSTAR":0.00037213581,"MEAN_MOTION_DOT":0.00047626,"MEAN_MOTION_DDOT":0}]
